{
  "type": "FeatureCollection",
  "features": [
    {
      "type": "Feature",
      "properties": {
        "norad_id": 66891,
        "name": "STARLINK-35855",
        "group": "last-30-days",
        "lat": -52.440238690657345,
        "lon": -98.41660756703922,
        "alt_km": 406.4923240454209,
        "timestamp": "2025-12-26T16:33:54.331480+00:00",
        "meta_object_name": "STARLINK-35855",
        "meta_object_id": "2025-283P",
        "meta_epoch": "2025-12-26T06:00:02.999808",
        "meta_mean_motion": 15.57471325,
        "meta_eccentricity": 0.00013344,
        "meta_inclination": 53.1593,
        "meta_ra_of_asc_node": 6.5561,
        "meta_arg_of_pericenter": 93.4141,
        "meta_mean_anomaly": 220.8984,
        "meta_ephemeris_type": 0,
        "meta_classification_type": "U",
        "meta_norad_cat_id": 66891,
        "meta_element_set_no": 999,
        "meta_rev_at_epoch": 460,
        "meta_bstar": -0.030650688,
        "meta_mean_motion_dot": -0.0204796,
        "meta_mean_motion_ddot": 0,
        "tle_line1": "1 66891U 25283P   25360.25003472 -.02047960  00000+0 -30651-1 0  9994",
        "tle_line2": "2 66891  53.1593   6.5561 0001334  93.4141 220.8984 15.57471325  4607"
      },
      "geometry": {
        "type": "Point",
        "coordinates": [
          -98.41660756703922,
          -52.440238690657345
        ]
      }
    },
    {
      "type": "Feature",
      "properties": {
        "norad_id": 66892,
        "name": "STARLINK-35883",
        "group": "last-30-days",
        "lat": -52.73993647594736,
        "lon": -95.31057928789376,
        "alt_km": 406.5018856812958,
        "timestamp": "2025-12-26T16:33:54.331489+00:00",
        "meta_object_name": "STARLINK-35883",
        "meta_object_id": "2025-283Q",
        "meta_epoch": "2025-12-26T06:00:02.999808",
        "meta_mean_motion": 15.5746971,
        "meta_eccentricity": 0.00013379,
        "meta_inclination": 53.1593,
        "meta_ra_of_asc_node": 6.5518,
        "meta_arg_of_pericenter": 94.7436,
        "meta_mean_anomaly": 221.4864,
        "meta_ephemeris_type": 0,
        "meta_classification_type": "U",
        "meta_norad_cat_id": 66892,
        "meta_element_set_no": 999,
        "meta_rev_at_epoch": 454,
        "meta_bstar": -0.030612806,
        "meta_mean_motion_dot": -0.02045589,
        "meta_mean_motion_ddot": 0,
        "tle_line1": "1 66892U 25283Q   25360.25003472 -.02045589  00000+0 -30613-1 0  9998",
        "tle_line2": "2 66892  53.1593   6.5518 0001337  94.7436 221.4864 15.57469710  4546"
      },
      "geometry": {
        "type": "Point",
        "coordinates": [
          -95.31057928789376,
          -52.73993647594736
        ]
      }
    },
    {
      "type": "Feature",
      "properties": {
        "norad_id": 66893,
        "name": "STARLINK-36033",
        "group": "last-30-days",
        "lat": -52.95750666905291,
        "lon": -92.16796608324658,
        "alt_km": 406.46465624044686,
        "timestamp": "2025-12-26T16:33:54.331498+00:00",
        "meta_object_name": "STARLINK-36033",
        "meta_object_id": "2025-283R",
        "meta_epoch": "2025-12-26T06:00:02.999808",
        "meta_mean_motion": 15.57470111,
        "meta_eccentricity": 0.00012677,
        "meta_inclination": 53.1596,
        "meta_ra_of_asc_node": 6.5477,
        "meta_arg_of_pericenter": 94.3276,
        "meta_mean_anomaly": 223.8188,
        "meta_ephemeris_type": 0,
        "meta_classification_type": "U",
        "meta_norad_cat_id": 66893,
        "meta_element_set_no": 999,
        "meta_rev_at_epoch": 460,
        "meta_bstar": -0.030612054,
        "meta_mean_motion_dot": -0.02045526,
        "meta_mean_motion_ddot": 0,
        "tle_line1": "1 66893U 25283R   25360.25003472 -.02045526  00000+0 -30612-1 0  9999",
        "tle_line2": "2 66893  53.1596   6.5477 0001267  94.3276 223.8188 15.57470111  4603"
      },
      "geometry": {
        "type": "Point",
        "coordinates": [
          -92.16796608324658,
          -52.95750666905291
        ]
      }
    },
    {
      "type": "Feature",
      "properties": {
        "norad_id": 66894,
        "name": "STARLINK-35718",
        "group": "last-30-days",
        "lat": -53.09065175060964,
        "lon": -88.9983442891831,
        "alt_km": 406.4947476334164,
        "timestamp": "2025-12-26T16:33:54.331507+00:00",
        "meta_object_name": "STARLINK-35718",
        "meta_object_id": "2025-283S",
        "meta_epoch": "2025-12-26T06:00:02.999808",
        "meta_mean_motion": 15.5747098,
        "meta_eccentricity": 0.00012935,
        "meta_inclination": 53.1593,
        "meta_ra_of_asc_node": 6.5447,
        "meta_arg_of_pericenter": 94.6277,
        "meta_mean_anomaly": 225.4361,
        "meta_ephemeris_type": 0,
        "meta_classification_type": "U",
        "meta_norad_cat_id": 66894,
        "meta_element_set_no": 999,
        "meta_rev_at_epoch": 460,
        "meta_bstar": -0.030650682,
        "meta_mean_motion_dot": -0.02047909,
        "meta_mean_motion_ddot": 0,
        "tle_line1": "1 66894U 25283S   25360.25003472 -.02047909  00000+0 -30651-1 0  9990",
        "tle_line2": "2 66894  53.1593   6.5447 0001293  94.6277 225.4361 15.57470980  4606"
      },
      "geometry": {
        "type": "Point",
        "coordinates": [
          -88.9983442891831,
          -53.09065175060964
        ]
      }
    },
    {
      "type": "Feature",
      "properties": {
        "norad_id": 66895,
        "name": "STARLINK-35971",
        "group": "last-30-days",
        "lat": -53.10309269729779,
        "lon": -82.63654498992787,
        "alt_km": 406.50001885288475,
        "timestamp": "2025-12-26T16:33:54.331517+00:00",
        "meta_object_name": "STARLINK-35971",
        "meta_object_id": "2025-283T",
        "meta_epoch": "2025-12-26T06:00:02.999808",
        "meta_mean_motion": 15.57472629,
        "meta_eccentricity": 0.00012815,
        "meta_inclination": 53.1595,
        "meta_ra_of_asc_node": 6.5345,
        "meta_arg_of_pericenter": 93.3497,
        "meta_mean_anomaly": 230.5478,
        "meta_ephemeris_type": 0,
        "meta_classification_type": "U",
        "meta_norad_cat_id": 66895,
        "meta_element_set_no": 999,
        "meta_rev_at_epoch": 460,
        "meta_bstar": -0.030704258,
        "meta_mean_motion_dot": -0.02051214,
        "meta_mean_motion_ddot": 0,
        "tle_line1": "1 66895U 25283T   25360.25003472 -.02051214  00000+0 -30704-1 0  9994",
        "tle_line2": "2 66895  53.1595   6.5345 0001281  93.3497 230.5478 15.57472629  4601"
      },
      "geometry": {
        "type": "Point",
        "coordinates": [
          -82.63654498992787,
          -53.10309269729779
        ]
      }
    },
    {
      "type": "Feature",
      "properties": {
        "norad_id": 66896,
        "name": "STARLINK-35791",
        "group": "last-30-days",
        "lat": -53.1394180809463,
        "lon": -85.81873199097694,
        "alt_km": 406.44879819289054,
        "timestamp": "2025-12-26T16:33:54.331527+00:00",
        "meta_object_name": "STARLINK-35791",
        "meta_object_id": "2025-283U",
        "meta_epoch": "2025-12-26T06:00:02.999808",
        "meta_mean_motion": 15.57476492,
        "meta_eccentricity": 0.00011971,
        "meta_inclination": 53.1594,
        "meta_ra_of_asc_node": 6.5387,
        "meta_arg_of_pericenter": 93.1809,
        "meta_mean_anomaly": 228.7993,
        "meta_ephemeris_type": 0,
        "meta_classification_type": "U",
        "meta_norad_cat_id": 66896,
        "meta_element_set_no": 999,
        "meta_rev_at_epoch": 460,
        "meta_bstar": -0.03080736,
        "meta_mean_motion_dot": -0.02057579,
        "meta_mean_motion_ddot": 0,
        "tle_line1": "1 66896U 25283U   25360.25003472 -.02057579  00000+0 -30807-1 0  9999",
        "tle_line2": "2 66896  53.1594   6.5387 0001197  93.1809 228.7993 15.57476492  4601"
      },
      "geometry": {
        "type": "Point",
        "coordinates": [
          -85.81873199097694,
          -53.1394180809463
        ]
      }
    },
    {
      "type": "Feature",
      "properties": {
        "norad_id": 66897,
        "name": "STARLINK-36079",
        "group": "last-30-days",
        "lat": -52.981931414418675,
        "lon": -79.46307932145136,
        "alt_km": 406.3737937000842,
        "timestamp": "2025-12-26T16:33:54.331537+00:00",
        "meta_object_name": "STARLINK-36079",
        "meta_object_id": "2025-283V",
        "meta_epoch": "2025-12-26T06:00:02.999808",
        "meta_mean_motion": 15.57472435,
        "meta_eccentricity": 0.00010996,
        "meta_inclination": 53.1597,
        "meta_ra_of_asc_node": 6.5312,
        "meta_arg_of_pericenter": 96.4087,
        "meta_mean_anomaly": 229.4078,
        "meta_ephemeris_type": 0,
        "meta_classification_type": "U",
        "meta_norad_cat_id": 66897,
        "meta_element_set_no": 999,
        "meta_rev_at_epoch": 460,
        "meta_bstar": -0.030731239,
        "meta_mean_motion_dot": -0.02052695,
        "meta_mean_motion_ddot": 0,
        "tle_line1": "1 66897U 25283V   25360.25003472 -.02052695  00000+0 -30731-1 0  9990",
        "tle_line2": "2 66897  53.1597   6.5312 0001099  96.4087 229.4078 15.57472435  4603"
      },
      "geometry": {
        "type": "Point",
        "coordinates": [
          -79.46307932145136,
          -52.981931414418675
        ]
      }
    }
  ]
}